*******************************************************************************
 Revised: Jan 23, 2020            Rhea  / (Saturn)                          605
                        http://ssd.jpl.nasa.gov/?sat_phys_par
                         http://ssd.jpl.nasa.gov/?sat_elem

 SATELLITE PHYSICAL PROPERTIES:
  Mean Radius (km)        = 764.5  +- 2     Density (g/cm^3)  =  1.233 +- 0.010
  Mass (10^19 kg)         = 230.9           Geometric Albedo  =  0.6
  GM (km^3/s^2)           = 153.94 +- 0.16  V(1,0)            = +0.1

 SATELLITE ORBITAL DATA (mean values referred to local Laplace plane):
  Semi-major axis, a (km) = 527.07(10^3)    Orbital period    = 4.518 d
  Eccentricity, e         = 0.001           Rotational period = Synchronous
  Inclination, i  (deg)   = 0.331
*******************************************************************************
 
 
*******************************************************************************
Ephemeris / WWW_USER Fri Jun 19 18:23:24 2020 Pasadena, USA      / Horizons
*******************************************************************************
Target body name: Rhea (605)                      {source: sat427l_merged_DE438}
Center body name: Solar System Barycenter (0)     {source: DE431mx}
Center-site name: BODY CENTER
*******************************************************************************
Start time      : A.D. 1969-Jun-28 00:00:00.0000 TDB
Stop  time      : A.D. 2071-May-04 00:00:00.0000 TDB
Step-size       : 7200 minutes
*******************************************************************************
Center geodetic : 0.00000000,0.00000000,0.0000000 {E-lon(deg),Lat(deg),Alt(km)}
Center cylindric: 0.00000000,0.00000000,0.0000000 {E-lon(deg),Dxy(km),Dz(km)}
Center radii    : (undefined)                                                  
Output units    : AU-D
Output type     : GEOMETRIC cartesian states
Output format   : 2 (position and velocity)
Reference frame : Ecliptic of J2000.0
*******************************************************************************
            JDTDB,            Calendar Date (TDB),        delta-T,                      X,                      Y,                      Z,                     VX,                     VY,                     VZ,
******************************************************************************************************************************************************************************************************************
$$SOE
2451600.500000000, A.D. 2000-Feb-26 00:00:00.0000,      64.185298,  6.158550449652869E+00,  6.775725431473079E+00, -3.614400880486416E-01,  2.795371650761253E-04,  4.715361212835788E-03, -8.860428945670013E-04,
2451605.500000000, A.D. 2000-Mar-02 00:00:00.0000,      64.185381,  6.138312733324024E+00,  6.795488534769419E+00, -3.616563955445006E-01, -1.574402613727390E-03,  7.125178084028608E-03, -1.973078523265848E-03,
2451610.500000000, A.D. 2000-Mar-07 00:00:00.0000,      64.185454,  6.116780363079731E+00,  6.816034780173815E+00, -3.621894832272312E-01, -4.673235643282453E-03,  8.059564412714536E-03, -2.154551809645298E-03,
2451615.500000000, A.D. 2000-Mar-12 00:00:00.0000,      64.185516,  6.093662855149843E+00,  6.836516165330461E+00, -3.625626993661982E-01, -7.670308048383066E-03,  7.102426910595843E-03, -1.349583018562873E-03,
2451620.500000000, A.D. 2000-Mar-17 00:00:00.0000,      64.185565,  6.069340516912735E+00,  6.856085336663015E+00, -3.623686413742853E-01, -9.267047133853521E-03,  4.671885113073797E-03,  8.797474517630367E-05,
2451625.500000000, A.D. 2000-Mar-22 00:00:00.0000,      64.185602,  6.044691797860252E+00,  6.874273265810685E+00, -3.614504417663282E-01, -8.782760650839924E-03,  1.820487194222654E-03,  1.533394474200200E-03,
2451630.500000000, A.D. 2000-Mar-27 00:00:00.0000,      64.185627,  6.020694609413078E+00,  6.891175146504069E+00, -3.599589524510124E-01, -6.438629569696072E-03, -2.262568675896416E-04,  2.363525333458501E-03,
2451635.500000000, A.D. 2000-Apr-01 00:00:00.0000,      64.185641,  5.998032627904474E+00,  6.907408998400048E+00, -3.582903132888017E-01, -3.251301539625623E-03, -5.926688566310613E-04,  2.221459431100352E-03,
2451640.500000000, A.D. 2000-Apr-06 00:00:00.0000,      64.185644,  5.976784839870612E+00,  6.923860452138403E+00, -3.569193530665192E-01, -6.029360114166586E-04,  8.789849029001643E-04,  1.166195399686462E-03,
2451645.500000000, A.D. 2000-Apr-11 00:00:00.0000,      64.185635,  5.956387013252271E+00,  6.941292405772788E+00, -3.561901988307228E-01,  3.530421134919871E-04,  3.547005205090381E-03, -3.455188756628649E-04,
2451650.500000000, A.D. 2000-Apr-16 00:00:00.0000,      64.185612,  5.935883055979390E+00,  6.960006910578533E+00, -3.561638366613583E-01, -8.088111017838131E-04,  6.251318683956254E-03, -1.658588399046381E-03,
2451655.500000000, A.D. 2000-Apr-21 00:00:00.0000,      64.185576,  5.914343489520747E+00,  6.979731079318535E+00, -3.566008864749841E-01, -3.593108970265675E-03,  7.810267609925583E-03, -2.201282353668888E-03,
2451660.500000000, A.D. 2000-Apr-26 00:00:00.0000,      64.185529,  5.891249198392201E+00,  6.999718575540560E+00, -3.570547471654666E-01, -6.793969584496157E-03,  7.534835958449039E-03, -1.734635399889178E-03,
2451665.500000000, A.D. 2000-May-01 00:00:00.0000,      64.185473,  5.866740575813215E+00,  7.019074099227393E+00, -3.570683168943479E-01, -9.018562064813947E-03,  5.541405824864387E-03, -4.632345201263330E-04,
2451670.500000000, A.D. 2000-May-06 00:00:00.0000,      64.185407,  5.841552957238445E+00,  7.037153466981440E+00, -3.563778408906728E-01, -9.312833270315780E-03,  2.697875708322136E-03,  1.057517544883476E-03,
2451675.500000000, A.D. 2000-May-11 00:00:00.0000,      64.185331,  5.816680587078964E+00,  7.053844531754470E+00, -3.550265728907251E-01, -7.560373437887478E-03,  2.289469382145500E-04,  2.170335712313733E-03,
2451680.500000000, A.D. 2000-May-16 00:00:00.0000,      64.185243,  5.792953133660183E+00,  7.069592785522299E+00, -3.533347542326311E-01, -4.526116971598771E-03, -8.084477165732168E-04,  2.397062913097171E-03,
2451685.500000000, A.D. 2000-May-21 00:00:00.0000,      64.185145,  5.770691511720946E+00,  7.085228520694975E+00, -3.517729199837953E-01, -1.523514534371992E-03,  3.021731008947005E-05,  1.638698436757336E-03,
2451690.500000000, A.D. 2000-May-26 00:00:00.0000,      64.185040,  5.749552430920282E+00,  7.101603747731921E+00, -3.507546012191508E-01,  1.419459760325578E-04,  2.380450521026841E-03,  2.216021678669566E-04,
2451695.500000000, A.D. 2000-May-31 00:00:00.0000,      64.184929,  5.728675435283453E+00,  7.119218889973450E+00, -3.504550442341886E-01, -2.600640543614756E-04,  5.219366574901868E-03, -1.240234450715653E-03,
2451700.500000000, A.D. 2000-Jun-05 00:00:00.0000,      64.184813,  5.707071694601838E+00,  7.138003008696112E+00, -3.507352035100830E-01, -2.566794469136713E-03,  7.307676505093368E-03, -2.110669998391676E-03,
2451705.500000000, A.D. 2000-Jun-10 00:00:00.0000,      64.184690,  5.684036059050515E+00,  7.157358098103231E+00, -3.512074918149938E-01, -5.780603367628073E-03,  7.729534251171674E-03, -2.009951567034660E-03,
2451710.500000000, A.D. 2000-Jun-15 00:00:00.0000,      64.184560,  5.659458011876781E+00,  7.176396291461590E+00, -3.513929674250444E-01, -8.505466176491129E-03,  6.293178007232123E-03, -9.807851591008881E-04,
2451715.500000000, A.D. 2000-Jun-20 00:00:00.0000,      64.184426,  5.633881945232183E+00,  7.194339143764810E+00, -3.509377623586551E-01, -9.560930079690090E-03,  3.623136998565900E-03,  5.263522666218872E-04,
2451720.500000000, A.D. 2000-Jun-25 00:00:00.0000,      64.184290,  5.608262373955147E+00,  7.210862051964891E+00, -3.497691628111316E-01, -8.504775549820723E-03,  8.753494596088051E-04,  1.857081936674526E-03,
2451725.500000000, A.D. 2000-Jun-30 00:00:00.0000,      64.184153,  5.583531604565352E+00,  7.226223017171243E+00, -3.481191556462031E-01, -5.801829521355914E-03, -7.717456338167940E-04,  2.438535267917159E-03,
2451730.500000000, A.D. 2000-Jul-05 00:00:00.0000,      64.184016,  5.560226196245107E+00,  7.241143270319625E+00, -3.464229941472208E-01, -2.622564459880859E-03, -6.157999794504007E-04,  2.021327015958252E-03,
2451735.500000000, A.D. 2000-Jul-10 00:00:00.0000,      64.183877,  5.538243174050897E+00,  7.256514279345749E+00, -3.451395968933042E-01, -3.463278943574577E-04,  1.276716763523769E-03,  7.824982283733369E-04,
2451740.500000000, A.D. 2000-Jul-15 00:00:00.0000,      64.183738,  5.516876950663709E+00,  7.273002353085609E+00, -3.445473113430178E-01,  3.193346754375527E-05,  4.081711165752257E-03, -7.414912986286732E-04,
2451745.500000000, A.D. 2000-Jul-20 00:00:00.0000,      64.183601,  5.495128971091020E+00,  7.290753013514319E+00, -3.446200894585519E-01, -1.660575387688207E-03,  6.576547179147648E-03, -1.888941128076587E-03,
2451750.500000000, A.D. 2000-Jul-25 00:00:00.0000,      64.183467,  5.472152564987820E+00,  7.309338455485122E+00, -3.450454616412322E-01, -4.697563314851150E-03,  7.667892022702050E-03, -2.158849572573716E-03,
2451755.500000000, A.D. 2000-Jul-30 00:00:00.0000,      64.183338,  5.447596839277153E+00,  7.327937499987177E+00, -3.453548900681366E-01, -7.760811740237415E-03,  6.873858186485939E-03, -1.433265877300822E-03,
2451760.500000000, A.D. 2000-Aug-04 00:00:00.0000,      64.183215,  5.421781571965785E+00,  7.345685075284069E+00, -3.451259458084678E-01, -9.519506412413361E-03,  4.535464853024428E-03, -2.882765745493755E-05,
2451765.500000000, A.D. 2000-Aug-09 00:00:00.0000,      64.183096,  5.395554817635015E+00,  7.362060332636791E+00, -3.441717453055045E-01, -9.222038269835180E-03,  1.668424850310836E-03,  1.442210732271751E-03,
2451770.500000000, A.D. 2000-Aug-14 00:00:00.0000,      64.182982,  5.369912351972793E+00,  7.377114862353753E+00, -3.426220685151132E-01, -7.009039101873054E-03, -4.940250115342932E-04,  2.344924769645653E-03,
